STARLINK-30150          
1 57621U 23119V   24114.64533449  .00012096  00000+0  90872-3 0  9993
2 57621  43.0013 204.2792 0001048 268.2365  91.8357 15.02544546 40031
STARLINK-30056          
1 57622U 23119W   24114.50902645  .00000288  00000+0  36381-4 0  9993
2 57622  43.0007 204.9442 0001266 254.0697 106.0006 15.02542180 40017
STARLINK-30100          
1 57623U 23119X   24114.43922607  .00002480  00000+0  19861-3 0  9995
2 57623  43.0015 205.3119 0001212 247.5722 112.4992 15.02531124 40000
STARLINK-30309          
1 57632U 23122A   24114.67830970  .00003593  00000+0  28099-3 0  9995
2 57632  43.0024 217.1975 0001104 248.1022 111.9703 15.02526609 39139
STARLINK-30306          
1 57633U 23122B   24114.67498717  .00002382  00000+0  19132-3 0  9998
2 57633  43.0006 217.1724 0000828 255.9279 104.1472 15.02538148 39132
STARLINK-30323          
1 57634U 23122C   24114.73607986  .00023012  00000+0  17118-2 0  9990
2 57634  43.0016 203.1780 0001315 280.4937  79.5757 15.02562460 39301
STARLINK-30329          
1 57635U 23122D   24114.47221456  .00049531  00000+0  36551-2 0  9992
2 57635  43.0015 218.2310 0001577 275.5885  84.4777 15.02543272 39109
STARLINK-30330          
1 57636U 23122E   24114.66831864  .00010454  00000+0  78720-3 0  9991
2 57636  43.0008 217.1237 0001005 310.8557  49.2198 15.02564775 39133
STARLINK-30311          
1 57637U 23122F   24114.46222749 -.00004001  00000+0 -28138-3 0  9997
2 57637  43.0024 218.1545 0001543 245.2963 114.7719 15.02521714 39104
STARLINK-30328          
1 57638U 23122G   24114.54330287  .00021377  00000+0  15920-2 0  9991
2 57638  43.0016 204.2524 0001282 263.0743  96.9953 15.02552349 39281
STARLINK-30326          
1 57639U 23122H   24114.49207895  .00001077  00000+0  94802-4 0  9997
2 57639  43.0006 217.5133 0001079 270.5831  89.4887 15.02532019 39116
STARLINK-30324          
1 57640U 23122J   24114.72147440  .00035723  00000+0  26434-2 0  9993
2 57640  43.0022 216.6605 0001061 274.9514  85.1208 15.02574545 39140
STARLINK-30312          
1 57641U 23122K   24114.58519365  .00019602  00000+0  14625-2 0  9994
2 57641  43.0024 217.3604 0000950 269.7836  90.2897 15.02525002 39106
STARLINK-30263          
1 57642U 23122L   24114.77795948  .00019356  00000+0  14430-2 0  9999
2 57642  43.0025 216.2267 0001400 304.8833  55.1878 15.02561108 39139
STARLINK-30280          
1 57643U 23122M   24114.56857027  .00053263  00000+0  39248-2 0  9993
2 57643  43.0021 217.2337 0001592 292.3097  67.7576 15.02567345 39122
STARLINK-30247          
1 57644U 23122N   24114.63835873  .00043649  00000+0  32276-2 0  9998
2 57644  43.0022 216.9017 0001275 262.9407  97.1290 15.02519206 39113
STARLINK-30277          
1 57645U 23122P   24114.65444869  .00026544  00000+0  10204-2 0  9994
2 57645  42.9999 212.7617 0001345 279.1027  80.9672 15.25927047 39183
STARLINK-30265          
1 57646U 23122Q   24114.78128377  .00019576  00000+0  14580-2 0  9990
2 57646  43.0018 216.2501 0001328 257.8896 102.1798 15.02593201 39134
STARLINK-30286          
1 57647U 23122R   24114.63169139  .00017392  00000+0  12996-2 0  9999
2 57647  43.0020 216.8469 0001282 269.2300  90.8396 15.02527756 39132
STARLINK-30243          
1 57648U 23122S   24114.75133161  .00026180  00000+0  19461-2 0  9998
2 57648  43.0021 216.0255 0001450 265.4037  94.6639 15.02530924 39145
STARLINK-30293          
1 57649U 23122T   24115.11710411  .00111701  00000+0  14832-2 0  9990
2 57649  42.9894 145.8394 0025804  74.4825 285.8884 15.56736456 39982
STARLINK-30299          
1 57650U 23122U   24114.69484324  .00031455  00000+0  23291-2 0  9991
2 57650  43.0024 216.4611 0001204 283.3869  76.6839 15.02601781 39142
STARLINK-30294          
1 57651U 23122V   24114.68847840 -.00003207  00000+0 -22253-3 0  9991
2 57651  42.9991 203.6860 0000342 243.6372 116.4435 15.02526018 39298
STARLINK-30276          
1 57652U 23122W   24114.68818219  .00000957  00000+0  85922-4 0  9990
2 57652  43.0022 216.4102 0001277 270.4903  89.5793 15.02533274 39146
STARLINK-30289          
1 57653U 23122X   24115.22361977  .00005619  00000+0  43067-3 0  9999
2 57653  43.0020 200.7767 0001258 254.8910 105.1793 15.02537341 39369
STARLINK-30267          
1 57663U 23124A   24115.09634853 -.00009352  00000+0 -32564-3 0  9993
2 57663  53.1244 148.0849 0001399  84.2662 275.8497 15.27992932 38598
STARLINK-30302          
1 57664U 23124B   24114.32454911  .00006107  00000+0  25224-3 0  9992
2 57664  53.0710 153.0879 0005066  37.8578 322.2775 15.25344357 38596
STARLINK-30298          
1 57665U 23124C   24115.09688152  .00032995  00000+0  11984-2 0  9995
2 57665  53.1233 149.5558 0002315 125.6331 234.4884 15.28023461 38711
STARLINK-30301          
1 57666U 23124D   24115.05040478  .00008399  00000+0  59465-3 0  9993
2 57666  53.1217 132.3292 0002150 101.6729 258.4502 15.05598052 38947
STARLINK-30275          
1 57667U 23124E   24114.56892193 -.00005688  00000+0 -19295-3 0  9995
2 57667  53.1001 151.7926 0001264 101.7990 258.3151 15.27998880 38636
STARLINK-30278          
1 57668U 23124F   24114.37442137  .00010324  00000+0  42721-3 0  9995
2 57668  53.1035 152.7965 0001545  84.9659 275.1515 15.24524590 38602
STARLINK-30271          
1 57669U 23124G   24115.12449333  .00011986  00000+0  44425-3 0  9993
2 57669  53.0849 148.8920 0002066 115.8707 244.2505 15.28052294 38729
STARLINK-30322          
1 57670U 23124H   24114.36282282 -.00000018  00000+0  12034-4 0  9995
2 57670  53.0806 151.8788 0001531  79.5104 280.6067 15.28000278 38624
STARLINK-30296          
1 57671U 23124J   24114.38569296  .00023822  00000+0  86940-3 0  9994
2 57671  53.1181 150.0227 0001829 113.0573 247.0619 15.28039919 38641
STARLINK-30274          
1 57672U 23124K   24115.11987510  .00017498  00000+0  64344-3 0  9996
2 57672  53.1288 148.9951 0002040  93.9469 266.1764 15.27991466 38574
STARLINK-30316          
1 57673U 23124L   24114.57828929 -.00004169  00000+0 -13798-3 0  9994
2 57673  53.1145 151.9484 0001532  71.8537 288.2628 15.28008445 38333
STARLINK-30314          
1 57674U 23124M   24115.10592004  .00037051  00000+0  13439-2 0  9992
2 57674  53.1281 149.6033 0002109 121.5749 238.5456 15.28011978 38352
STARLINK-30317          
1 57675U 23124N   24114.36770762  .00003849  00000+0  15157-3 0  9997
2 57675  53.1276 152.8265 0001080 119.2039 240.9069 15.28018257 38605
STARLINK-30313          
1 57676U 23124P   24114.39569838  .00000074  00000+0  15338-4 0  9990
2 57676  53.1331 152.2953 0001810 104.4033 255.7167 15.28015494 38611
STARLINK-30303          
1 57677U 23124Q   24115.09187266  .00026000  00000+0  94870-3 0  9994
2 57677  53.1287 149.5050 0002870 143.2766 216.8430 15.27995400 38579
STARLINK-30320          
1 57678U 23124R   24114.47979764  .00020524  00000+0  75100-3 0  9998
2 57678  53.1305 152.1180 0001272  93.3385 266.7760 15.28045247 38624
STARLINK-30321          
1 57679U 23124S   24114.38175449  .00000206  00000+0  20131-4 0  9997
2 57679  53.1228 152.9075 0001746 104.3330 255.7863 15.28017987 38609
STARLINK-30283          
1 57680U 23124T   24114.36793216 -.00009772  00000+0 -34052-3 0  9990
2 57680  53.1221 152.0853 0001522  58.8596 301.2552 15.28025690 38611
STARLINK-30273          
1 57681U 23124U   24115.10885774  .00039382  00000+0  15438-2 0  9999
2 57681  53.1057 149.5530 0001073 118.5166 241.5940 15.25411080 38717
STARLINK-30297          
1 57682U 23124V   24115.11049942 -.00005997  00000+0 -20407-3 0  9990
2 57682  53.1319 148.9253 0001475 114.7486 245.3667 15.28012248 38728
STARLINK-30295          
1 57683U 23124W   24115.09573428  .00007683  00000+0  28988-3 0  9993
2 57683  53.1272 145.9279 0001674  91.2057 268.9134 15.28003773 38752
STARLINK-30288          
1 57698U 23129A   24114.67766626  .00009916  00000+0  74812-3 0  9999
2 57698  43.0031 242.2092 0001434 255.5104 104.5579 15.02533705 37612
STARLINK-30347          
1 57699U 23129B   24114.52846607 -.00009320  00000+0 -67625-3 0  9997
2 57699  43.0023 230.8784 0001240 270.9435  89.1265 15.02510145 37734
STARLINK-30332          
1 57700U 23129C   24114.74081616  .00002412  00000+0  19360-3 0  9991
2 57700  43.0035 241.8289 0001264 261.3109  98.7590 15.02531899 37488
STARLINK-30345          
1 57701U 23129D   24114.52817587 -.00008890  00000+0 -64410-3 0  9996
2 57701  43.0027 243.6689 0001234 260.4710  99.5993 15.02522687 37222
STARLINK-30333          
1 57702U 23129E   24114.65446159  .00005675  00000+0  43474-3 0  9997
2 57702  43.0023 242.8955 0001093 264.9690  95.1028 15.02543360 37609
STARLINK-30336          
1 57703U 23129F   24114.59132014 -.00001370  00000+0 -86359-4 0  9993
2 57703  43.0030 243.2827 0001605 236.7900 123.2789 15.02521414 37299
STARLINK-30346          
1 57704U 23129G   24114.78076470  .00029853  00000+0  22169-2 0  9999
2 57704  43.0030 242.1288 0001595 276.5410  83.5251 15.02513355 37483
STARLINK-30342          
1 57705U 23129H   24114.60451089  .00018953  00000+0  14149-2 0  9992
2 57705  43.0025 242.5217 0001454 272.3581  87.7095 15.02519464 37604
STARLINK-30327          
1 57707U 23129K   24114.64809834  .00002386  00000+0  19170-3 0  9996
2 57707  43.0020 230.1342 0001326 268.3193  91.7498 15.02525337 37614
STARLINK-30315          
1 57708U 23129L   24114.83725248  .00002724  00000+0  21663-3 0  9990
2 57708  43.0023 241.6876 0001614 251.0959 108.9709 15.02533022 37634
STARLINK-30287          
1 57709U 23129M   24114.64446863  .00003234  00000+0  25461-3 0  9990
2 57709  43.0021 242.8209 0001538 287.6934  72.3741 15.02498377 37609
STARLINK-30335          
1 57710U 23129N   24114.70763400  .00017812  00000+0  13303-2 0  9996
2 57710  43.0022 242.4319 0001402 250.8354 109.2337 15.02536276 37611
STARLINK-30318          
1 57711U 23129P   24114.65114618  .00008420  00000+0  63762-3 0  9992
2 57711  43.0013 242.8556 0001242 253.1346 106.9360 15.02537075 37469
